[{"OBJECT_NAME":"STARLINK-3546","OBJECT_ID":"2022-016E","EPOCH":"2026-03-09T22:22:52.542048","MEAN_MOTION":15.15260371,"ECCENTRICITY":4.574e-5,"INCLINATION":53.2162,"RA_OF_ASC_NODE":325.333,"ARG_OF_PERICENTER":337.214,"MEAN_ANOMALY":22.8835,"EPHEMERIS_TYPE":0,"CLASSIFICATION_TYPE":"U","NORAD_CAT_ID":51718,"ELEMENT_SET_NO":999,"REV_AT_EPOCH":22462,"BSTAR":0.0017256751,"MEAN_MOTION_DOT":0.00032685,"MEAN_MOTION_DDOT":0},{"OBJECT_NAME":"AAC-HSI-SAT3","OBJECT_ID":"2023-174DH","EPOCH":"2026-03-09T23:15:51.401952","MEAN_MOTION":15.15239914,"ECCENTRICITY":0.00104695,"INCLINATION":97.3525,"RA_OF_ASC_NODE":131.622,"ARG_OF_PERICENTER":2.3661,"MEAN_ANOMALY":357.7619,"EPHEMERIS_TYPE":0,"CLASSIFICATION_TYPE":"U","NORAD_CAT_ID":58848,"ELEMENT_SET_NO":999,"REV_AT_EPOCH":12887,"BSTAR":0.00020496498,"MEAN_MOTION_DOT":3.793e-5,"MEAN_MOTION_DDOT":0}]
